[{"OBJECT_NAME":"CANX-2","OBJECT_ID":"2008-021H","EPOCH":"2026-03-09T21:45:30.862944","MEAN_MOTION":15.04798248,"ECCENTRICITY":0.00113052,"INCLINATION":97.8556,"RA_OF_ASC_NODE":46.8625,"ARG_OF_PERICENTER":28.5783,"MEAN_ANOMALY":331.606,"EPHEMERIS_TYPE":0,"CLASSIFICATION_TYPE":"U","NORAD_CAT_ID":32790,"ELEMENT_SET_NO":999,"REV_AT_EPOCH":96987,"BSTAR":0.0003958982,"MEAN_MOTION_DOT":5.531e-5,"MEAN_MOTION_DDOT":0},{"OBJECT_NAME":"STARLINK-34630","OBJECT_ID":"2025-158S","EPOCH":"2026-03-09T13:54:42.789888","MEAN_MOTION":15.05650622,"ECCENTRICITY":0.0001986,"INCLINATION":97.6024,"RA_OF_ASC_NODE":294.0455,"ARG_OF_PERICENTER":82.2798,"MEAN_ANOMALY":277.8654,"EPHEMERIS_TYPE":0,"CLASSIFICATION_TYPE":"U","NORAD_CAT_ID":64948,"ELEMENT_SET_NO":999,"REV_AT_EPOCH":3534,"BSTAR":0.00018476,"MEAN_MOTION_DOT":2.606e-5,"MEAN_MOTION_DDOT":0}]
